0 CZ-4 DEB
1 20891U 90081BB  13282.23093065  .00000367  00000-0  43510-3 0  3909
2 20891 099.1107 192.8079 0217463 076.6713 085.2336 13.63953078144122
0 CZ-4 DEB
1 20891U 90081BB  13286.75932775  .00000421  00000-0  49261-3 0  3922
2 20891 099.1111 197.0549 0217479 064.9989 000.6634 13.63956415144746
0 CZ-4 DEB
1 20891U 90081BB  13289.69193547  .00000458  00000-0  53279-3 0  3939
2 20891 099.1112 199.8055 0217451 057.4318 000.4567 13.63959664145149
0 CZ-4 DEB
1 20891U 90081BB  13292.20840706  .00000482  00000-0  55901-3 0  3948
2 20891 099.1110 202.1662 0217456 050.9375 116.9524 13.63962202145480
0 CZ-4 DEB
1 20891U 90081BB  13294.25376079  .00000492  00000-0  56985-3 0  3957
2 20891 099.1110 204.0848 0217429 045.6593 080.1593 13.63964709145763
